ONEWEB-0150             
1 48047U 21025F   26106.85614019  .00000247  00000+0  64142-3 0  9994
2 48047  87.8989 332.4265 0001536  86.3175 273.8130 13.13468303245494
ONEWEB-0107             
1 48048U 21025G   26106.85782455  .00000182  00000+0  46313-3 0  9993
2 48048  87.8992 332.4213 0001554  75.8521 284.2780 13.13468834245474
ONEWEB-0101             
1 48049U 21025H   26106.89675851 -.00000018  00000+0 -85281-4 0  9997
2 48049  87.8981 332.4353 0001754  77.4794 282.6531 13.13469580245453
ONEWEB-0113             
1 48050U 21025J   26106.63702007 -.00000074  00000+0 -23493-3 0  9993
2 48050  87.8988 332.4031 0001893  92.9052 267.2294 13.13948370245520
ONEWEB-0112             
1 48051U 21025K   26106.86290844  .00000043  00000+0  82046-4 0  9994
2 48051  87.8995 332.4180 0001779  75.0573 285.0753 13.13468050245549
ONEWEB-0156             
1 48052U 21025L   26106.87137108 -.00000216  00000+0 -62515-3 0  9991
2 48052  87.8998 332.4267 0001572  81.3439 278.7868 13.13468594245528
ONEWEB-0161             
1 48053U 21025M   26106.61745170  .00000356  00000+0  94047-3 0  9996
2 48053  87.8983 332.4833 0001568  79.8745 280.2561 13.13469028245429
ONEWEB-0158             
1 48054U 21025N   26106.57681185 -.00000251  00000+0 -72290-3 0  9999
2 48054  87.8983 332.4849 0002074  85.5212 274.6154 13.13469123245547
ONEWEB-0157             
1 48055U 21025P   26106.60220611  .00000264  00000+0  68763-3 0  9999
2 48055  87.8991 332.4844 0001521  69.8879 290.2413 13.13470073245483
ONEWEB-0162             
1 48056U 21025Q   26106.57837705 -.00000266  00000+0 -76425-3 0  9992
2 48056  87.8985 332.4929 0001591  85.8747 274.2563 13.13470094245458
ONEWEB-0155             
1 48057U 21025R   26106.88998796 -.00000234  00000+0 -67668-3 0  9999
2 48057  87.8981 332.4278 0001764  76.9567 283.1759 13.13469729245634
ONEWEB-0149             
1 48058U 21025S   26106.60728845  .00000961  00000+0  25953-2 0  9991
2 48058  87.8995 332.4839 0001486  87.8532 272.2768 13.13474976245401
ONEWEB-0148             
1 48059U 21025T   26106.87475650 -.00000264  00000+0 -75679-3 0  9993
2 48059  87.8989 332.4421 0001136  91.6005 268.5254 13.13468933245563
ONEWEB-0160             
1 48060U 21025U   26106.58697183 -.00000166  00000+0 -48919-3 0  9998
2 48060  87.8982 332.4958 0002325  96.1567 263.9827 13.13469298245477
ONEWEB-0163             
1 48061U 21025V   26106.87644074 -.00000274  00000+0 -78594-3 0  9994
2 48061  87.8982 332.4312 0001580  73.4128 286.7175 13.13469162245632
ONEWEB-0159             
1 48062U 21025W   26106.56327241 -.00000081  00000+0 -25624-3 0  9997
2 48062  87.8993 332.4831 0001513  78.8481 281.2818 13.13469238245513
