[{"OBJECT_NAME":"ONEWEB-0150","OBJECT_ID":"2021-025F","EPOCH":"2026-04-16T20:32:50.512416","MEAN_MOTION":13.13468303,"ECCENTRICITY":0.0001536,"INCLINATION":87.8989,"RA_OF_ASC_NODE":332.4265,"ARG_OF_PERICENTER":86.3175,"MEAN_ANOMALY":273.813,"EPHEMERIS_TYPE":0,"CLASSIFICATION_TYPE":"U","NORAD_CAT_ID":48047,"ELEMENT_SET_NO":999,"REV_AT_EPOCH":24549,"BSTAR":0.00064142,"MEAN_MOTION_DOT":2.47e-06,"MEAN_MOTION_DDOT":0.0},{"OBJECT_NAME":"ONEWEB-0107","OBJECT_ID":"2021-025G","EPOCH":"2026-04-16T20:35:16.041120","MEAN_MOTION":13.13468834,"ECCENTRICITY":0.0001554,"INCLINATION":87.8992,"RA_OF_ASC_NODE":332.4213,"ARG_OF_PERICENTER":75.8521,"MEAN_ANOMALY":284.278,"EPHEMERIS_TYPE":0,"CLASSIFICATION_TYPE":"U","NORAD_CAT_ID":48048,"ELEMENT_SET_NO":999,"REV_AT_EPOCH":24547,"BSTAR":0.00046313,"MEAN_MOTION_DOT":1.82e-06,"MEAN_MOTION_DDOT":0.0},{"OBJECT_NAME":"ONEWEB-0101","OBJECT_ID":"2021-025H","EPOCH":"2026-04-16T21:31:19.935264","MEAN_MOTION":13.1346958,"ECCENTRICITY":0.0001754,"INCLINATION":87.8981,"RA_OF_ASC_NODE":332.4353,"ARG_OF_PERICENTER":77.4794,"MEAN_ANOMALY":282.6531,"EPHEMERIS_TYPE":0,"CLASSIFICATION_TYPE":"U","NORAD_CAT_ID":48049,"ELEMENT_SET_NO":999,"REV_AT_EPOCH":24545,"BSTAR":-8.5281e-05,"MEAN_MOTION_DOT":-1.8e-07,"MEAN_MOTION_DDOT":0.0},{"OBJECT_NAME":"ONEWEB-0113","OBJECT_ID":"2021-025J","EPOCH":"2026-04-16T15:17:18.534048","MEAN_MOTION":13.1394837,"ECCENTRICITY":0.0001893,"INCLINATION":87.8988,"RA_OF_ASC_NODE":332.4031,"ARG_OF_PERICENTER":92.9052,"MEAN_ANOMALY":267.2294,"EPHEMERIS_TYPE":0,"CLASSIFICATION_TYPE":"U","NORAD_CAT_ID":48050,"ELEMENT_SET_NO":999,"REV_AT_EPOCH":24552,"BSTAR":-0.00023493,"MEAN_MOTION_DOT":-7.4e-07,"MEAN_MOTION_DDOT":0.0},{"OBJECT_NAME":"ONEWEB-0112","OBJECT_ID":"2021-025K","EPOCH":"2026-04-16T20:42:35.289216","MEAN_MOTION":13.1346805,"ECCENTRICITY":0.0001779,"INCLINATION":87.8995,"RA_OF_ASC_NODE":332.418,"ARG_OF_PERICENTER":75.0573,"MEAN_ANOMALY":285.0753,"EPHEMERIS_TYPE":0,"CLASSIFICATION_TYPE":"U","NORAD_CAT_ID":48051,"ELEMENT_SET_NO":999,"REV_AT_EPOCH":24554,"BSTAR":8.204600000000001e-05,"MEAN_MOTION_DOT":4.3e-07,"MEAN_MOTION_DDOT":0.0},{"OBJECT_NAME":"ONEWEB-0156","OBJECT_ID":"2021-025L","EPOCH":"2026-04-16T20:54:46.461312","MEAN_MOTION":13.13468594,"ECCENTRICITY":0.0001572,"INCLINATION":87.8998,"RA_OF_ASC_NODE":332.4267,"ARG_OF_PERICENTER":81.3439,"MEAN_ANOMALY":278.7868,"EPHEMERIS_TYPE":0,"CLASSIFICATION_TYPE":"U","NORAD_CAT_ID":48052,"ELEMENT_SET_NO":999,"REV_AT_EPOCH":24552,"BSTAR":-0.00062515,"MEAN_MOTION_DOT":-2.16e-06,"MEAN_MOTION_DDOT":0.0},{"OBJECT_NAME":"ONEWEB-0161","OBJECT_ID":"2021-025M","EPOCH":"2026-04-16T14:49:07.826880","MEAN_MOTION":13.13469028,"ECCENTRICITY":0.0001568,"INCLINATION":87.8983,"RA_OF_ASC_NODE":332.4833,"ARG_OF_PERICENTER":79.8745,"MEAN_ANOMALY":280.2561,"EPHEMERIS_TYPE":0,"CLASSIFICATION_TYPE":"U","NORAD_CAT_ID":48053,"ELEMENT_SET_NO":999,"REV_AT_EPOCH":24542,"BSTAR":0.00094047,"MEAN_MOTION_DOT":3.56e-06,"MEAN_MOTION_DDOT":0.0},{"OBJECT_NAME":"ONEWEB-0158","OBJECT_ID":"2021-025N","EPOCH":"2026-04-16T13:50:36.543840","MEAN_MOTION":13.13469123,"ECCENTRICITY":0.0002074,"INCLINATION":87.8983,"RA_OF_ASC_NODE":332.4849,"ARG_OF_PERICENTER":85.5212,"MEAN_ANOMALY":274.6154,"EPHEMERIS_TYPE":0,"CLASSIFICATION_TYPE":"U","NORAD_CAT_ID":48054,"ELEMENT_SET_NO":999,"REV_AT_EPOCH":24554,"BSTAR":-0.0007229,"MEAN_MOTION_DOT":-2.51e-06,"MEAN_MOTION_DDOT":0.0},{"OBJECT_NAME":"ONEWEB-0157","OBJECT_ID":"2021-025P","EPOCH":"2026-04-16T14:27:10.607904","MEAN_MOTION":13.13470073,"ECCENTRICITY":0.0001521,"INCLINATION":87.8991,"RA_OF_ASC_NODE":332.4844,"ARG_OF_PERICENTER":69.8879,"MEAN_ANOMALY":290.2413,"EPHEMERIS_TYPE":0,"CLASSIFICATION_TYPE":"U","NORAD_CAT_ID":48055,"ELEMENT_SET_NO":999,"REV_AT_EPOCH":24548,"BSTAR":0.00068763,"MEAN_MOTION_DOT":2.64e-06,"MEAN_MOTION_DDOT":0.0},{"OBJECT_NAME":"ONEWEB-0162","OBJECT_ID":"2021-025Q","EPOCH":"2026-04-16T13:52:51.777120","MEAN_MOTION":13.13470094,"ECCENTRICITY":0.0001591,"INCLINATION":87.8985,"RA_OF_ASC_NODE":332.4929,"ARG_OF_PERICENTER":85.8747,"MEAN_ANOMALY":274.2563,"EPHEMERIS_TYPE":0,"CLASSIFICATION_TYPE":"U","NORAD_CAT_ID":48056,"ELEMENT_SET_NO":999,"REV_AT_EPOCH":24545,"BSTAR":-0.00076425,"MEAN_MOTION_DOT":-2.66e-06,"MEAN_MOTION_DDOT":0.0},{"OBJECT_NAME":"ONEWEB-0155","OBJECT_ID":"2021-025R","EPOCH":"2026-04-16T21:21:34.959744","MEAN_MOTION":13.13469729,"ECCENTRICITY":0.0001764,"INCLINATION":87.8981,"RA_OF_ASC_NODE":332.4278,"ARG_OF_PERICENTER":76.9567,"MEAN_ANOMALY":283.1759,"EPHEMERIS_TYPE":0,"CLASSIFICATION_TYPE":"U","NORAD_CAT_ID":48057,"ELEMENT_SET_NO":999,"REV_AT_EPOCH":24563,"BSTAR":-0.0006766799999999999,"MEAN_MOTION_DOT":-2.34e-06,"MEAN_MOTION_DDOT":0.0},{"OBJECT_NAME":"ONEWEB-0149","OBJECT_ID":"2021-025S","EPOCH":"2026-04-16T14:34:29.722080","MEAN_MOTION":13.13474976,"ECCENTRICITY":0.0001486,"INCLINATION":87.8995,"RA_OF_ASC_NODE":332.4839,"ARG_OF_PERICENTER":87.8532,"MEAN_ANOMALY":272.2768,"EPHEMERIS_TYPE":0,"CLASSIFICATION_TYPE":"U","NORAD_CAT_ID":48058,"ELEMENT_SET_NO":999,"REV_AT_EPOCH":24540,"BSTAR":0.0025953,"MEAN_MOTION_DOT":9.61e-06,"MEAN_MOTION_DDOT":0.0},{"OBJECT_NAME":"ONEWEB-0148","OBJECT_ID":"2021-025T","EPOCH":"2026-04-16T20:59:38.961600","MEAN_MOTION":13.13468933,"ECCENTRICITY":0.0001136,"INCLINATION":87.8989,"RA_OF_ASC_NODE":332.4421,"ARG_OF_PERICENTER":91.6005,"MEAN_ANOMALY":268.5254,"EPHEMERIS_TYPE":0,"CLASSIFICATION_TYPE":"U","NORAD_CAT_ID":48059,"ELEMENT_SET_NO":999,"REV_AT_EPOCH":24556,"BSTAR":-0.00075679,"MEAN_MOTION_DOT":-2.64e-06,"MEAN_MOTION_DDOT":0.0},{"OBJECT_NAME":"ONEWEB-0160","OBJECT_ID":"2021-025U","EPOCH":"2026-04-16T14:05:14.366112","MEAN_MOTION":13.13469298,"ECCENTRICITY":0.0002325,"INCLINATION":87.8982,"RA_OF_ASC_NODE":332.4958,"ARG_OF_PERICENTER":96.1567,"MEAN_ANOMALY":263.9827,"EPHEMERIS_TYPE":0,"CLASSIFICATION_TYPE":"U","NORAD_CAT_ID":48060,"ELEMENT_SET_NO":999,"REV_AT_EPOCH":24547,"BSTAR":-0.00048919,"MEAN_MOTION_DOT":-1.66e-06,"MEAN_MOTION_DDOT":0.0},{"OBJECT_NAME":"ONEWEB-0163","OBJECT_ID":"2021-025V","EPOCH":"2026-04-16T21:02:04.479936","MEAN_MOTION":13.13469162,"ECCENTRICITY":0.000158,"INCLINATION":87.8982,"RA_OF_ASC_NODE":332.4312,"ARG_OF_PERICENTER":73.4128,"MEAN_ANOMALY":286.7175,"EPHEMERIS_TYPE":0,"CLASSIFICATION_TYPE":"U","NORAD_CAT_ID":48061,"ELEMENT_SET_NO":999,"REV_AT_EPOCH":24563,"BSTAR":-0.00078594,"MEAN_MOTION_DOT":-2.74e-06,"MEAN_MOTION_DDOT":0.0},{"OBJECT_NAME":"ONEWEB-0159","OBJECT_ID":"2021-025W","EPOCH":"2026-04-16T13:31:06.736224","MEAN_MOTION":13.13469238,"ECCENTRICITY":0.0001513,"INCLINATION":87.8993,"RA_OF_ASC_NODE":332.4831,"ARG_OF_PERICENTER":78.8481,"MEAN_ANOMALY":281.2818,"EPHEMERIS_TYPE":0,"CLASSIFICATION_TYPE":"U","NORAD_CAT_ID":48062,"ELEMENT_SET_NO":999,"REV_AT_EPOCH":24551,"BSTAR":-0.00025624,"MEAN_MOTION_DOT":-8.1e-07,"MEAN_MOTION_DDOT":0.0}]